[
    {
        "Altitude(m)": 605459.0560724405,
        "Argument of Periapsis(deg)": 0.0,
        "Eccentricity": 0.0,
        "Inclination(deg)": 60.0,
        "Latitude(deg)": 27.98830255999027,
        "Longitude(deg)": 47.7985404066756,
        "Mean Anomaly(deg)": 32.72730000000001,
        "RAAN(deg)": 130.0,
        "Satellite Name": "Test1 574",
        "Satellite Number": 574,
        "Semi-Major Axis(m)": 6980739.136638005,
        "Time(s)": 0
    },
    {
        "Altitude(m)": 605535.8475808537,
        "Argument of Periapsis(deg)": 0.00010418945913296404,
        "Eccentricity": 0.0,
        "Inclination(deg)": 60.0,
        "Latitude(deg)": 28.501432584278774,
        "Longitude(deg)": 48.15548481831983,
        "Mean Anomaly(deg)": 33.34740614546182,
        "RAAN(deg)": 129.99957995086024,
        "Satellite Name": "Test1 574",
        "Satellite Number": 574,
        "Semi-Major Axis(m)": 6980739.136638005,
        "Time(s)": 10
    }
]